[{"OBJECT_NAME":"INTELSAT 902 (IS-902)","OBJECT_ID":"2001-039A","EPOCH":"2026-04-25T20:12:55.804320","MEAN_MOTION":1.00271152,"ECCENTRICITY":0.0004523,"INCLINATION":5.9865,"RA_OF_ASC_NODE":72.4073,"ARG_OF_PERICENTER":319.1985,"MEAN_ANOMALY":75.3869,"EPHEMERIS_TYPE":0,"CLASSIFICATION_TYPE":"U","NORAD_CAT_ID":26900,"ELEMENT_SET_NO":999,"REV_AT_EPOCH":9017,"BSTAR":0,"MEAN_MOTION_DOT":-2.92e-6,"MEAN_MOTION_DDOT":0},{"OBJECT_NAME":"INTELSAT 904 (IS-904)","OBJECT_ID":"2002-007A","EPOCH":"2026-04-25T04:54:11.584800","MEAN_MOTION":1.00269967,"ECCENTRICITY":0.0007641,"INCLINATION":6.7906,"RA_OF_ASC_NODE":69.807,"ARG_OF_PERICENTER":337.8561,"MEAN_ANOMALY":207.6189,"EPHEMERIS_TYPE":0,"CLASSIFICATION_TYPE":"U","NORAD_CAT_ID":27380,"ELEMENT_SET_NO":999,"REV_AT_EPOCH":5123,"BSTAR":0,"MEAN_MOTION_DOT":-2.35e-6,"MEAN_MOTION_DDOT":0},{"OBJECT_NAME":"DIRECTV 5 (TEMPO 1)","OBJECT_ID":"2002-023A","EPOCH":"2026-04-25T14:29:17.023200","MEAN_MOTION":1.00271721,"ECCENTRICITY":0.0003411,"INCLINATION":4.7459,"RA_OF_ASC_NODE":75.947,"ARG_OF_PERICENTER":319.8384,"MEAN_ANOMALY":285.0455,"EPHEMERIS_TYPE":0,"CLASSIFICATION_TYPE":"U","NORAD_CAT_ID":27426,"ELEMENT_SET_NO":999,"REV_AT_EPOCH":8759,"BSTAR":0,"MEAN_MOTION_DOT":-6.7e-7,"MEAN_MOTION_DDOT":0},{"OBJECT_NAME":"INTELSAT 905 (IS-905)","OBJECT_ID":"2002-027A","EPOCH":"2026-04-25T14:43:42.486816","MEAN_MOTION":1.00273059,"ECCENTRICITY":0.0003377,"INCLINATION":6.6244,"RA_OF_ASC_NODE":70.4202,"ARG_OF_PERICENTER":337.2769,"MEAN_ANOMALY":249.6576,"EPHEMERIS_TYPE":0,"CLASSIFICATION_TYPE":"U","NORAD_CAT_ID":27438,"ELEMENT_SET_NO":999,"REV_AT_EPOCH":5083,"BSTAR":0,"MEAN_MOTION_DOT":8.4e-7,"MEAN_MOTION_DDOT":0},{"OBJECT_NAME":"GALAXY 3C (G-3C)","OBJECT_ID":"2002-030A","EPOCH":"2026-04-25T20:00:19.513152","MEAN_MOTION":1.00271473,"ECCENTRICITY":0.0001504,"INCLINATION":3.5967,"RA_OF_ASC_NODE":78.6739,"ARG_OF_PERICENTER":25.5747,"MEAN_ANOMALY":314.8098,"EPHEMERIS_TYPE":0,"CLASSIFICATION_TYPE":"U","NORAD_CAT_ID":27445,"ELEMENT_SET_NO":999,"REV_AT_EPOCH":4596,"BSTAR":0,"MEAN_MOTION_DOT":-1.63e-6,"MEAN_MOTION_DDOT":0},{"OBJECT_NAME":"INTELSAT 906 (IS-906)","OBJECT_ID":"2002-041A","EPOCH":"2026-04-25T12:12:15.460992","MEAN_MOTION":1.00270322,"ECCENTRICITY":0.0004048,"INCLINATION":5.6703,"RA_OF_ASC_NODE":73.5537,"ARG_OF_PERICENTER":334.0014,"MEAN_ANOMALY":53.1973,"EPHEMERIS_TYPE":0,"CLASSIFICATION_TYPE":"U","NORAD_CAT_ID":27513,"ELEMENT_SET_NO":999,"REV_AT_EPOCH":8650,"BSTAR":0,"MEAN_MOTION_DOT":3.0e-8,"MEAN_MOTION_DDOT":0},{"OBJECT_NAME":"GALAXY 13 (HORIZONS-1)","OBJECT_ID":"2003-044A","EPOCH":"2026-04-25T11:19:38.786016","MEAN_MOTION":1.00272881,"ECCENTRICITY":0.0002215,"INCLINATION":1.2831,"RA_OF_ASC_NODE":84.483,"ARG_OF_PERICENTER":312.4608,"MEAN_ANOMALY":196.4505,"EPHEMERIS_TYPE":0,"CLASSIFICATION_TYPE":"U","NORAD_CAT_ID":27954,"ELEMENT_SET_NO":999,"REV_AT_EPOCH":4604,"BSTAR":0,"MEAN_MOTION_DOT":1.2e-6,"MEAN_MOTION_DDOT":0},{"OBJECT_NAME":"INTELSAT 10-02","OBJECT_ID":"2004-022A","EPOCH":"2026-04-25T20:16:38.659296","MEAN_MOTION":1.00267814,"ECCENTRICITY":0.0001312,"INCLINATION":0.0161,"RA_OF_ASC_NODE":79.7429,"ARG_OF_PERICENTER":344.1658,"MEAN_ANOMALY":93.0742,"EPHEMERIS_TYPE":0,"CLASSIFICATION_TYPE":"U","NORAD_CAT_ID":28358,"ELEMENT_SET_NO":999,"REV_AT_EPOCH":8003,"BSTAR":0,"MEAN_MOTION_DOT":0,"MEAN_MOTION_DDOT":0},{"OBJECT_NAME":"DIRECTV 8","OBJECT_ID":"2005-019A","EPOCH":"2026-04-25T11:30:40.113216","MEAN_MOTION":1.00270696,"ECCENTRICITY":0.0003136,"INCLINATION":0.0153,"RA_OF_ASC_NODE":229.449,"ARG_OF_PERICENTER":170.6777,"MEAN_ANOMALY":226.9819,"EPHEMERIS_TYPE":0,"CLASSIFICATION_TYPE":"U","NORAD_CAT_ID":28659,"ELEMENT_SET_NO":999,"REV_AT_EPOCH":7654,"BSTAR":0,"MEAN_MOTION_DOT":0,"MEAN_MOTION_DDOT":0},{"OBJECT_NAME":"GALAXY 28 (G-28)","OBJECT_ID":"2005-022A","EPOCH":"2026-04-25T20:19:32.668896","MEAN_MOTION":1.00266785,"ECCENTRICITY":0.0003133,"INCLINATION":3.1664,"RA_OF_ASC_NODE":79.5557,"ARG_OF_PERICENTER":315.2093,"MEAN_ANOMALY":96.864,"EPHEMERIS_TYPE":0,"CLASSIFICATION_TYPE":"U","NORAD_CAT_ID":28702,"ELEMENT_SET_NO":999,"REV_AT_EPOCH":5145,"BSTAR":0,"MEAN_MOTION_DOT":-2.12e-6,"MEAN_MOTION_DDOT":0},{"OBJECT_NAME":"GALAXY 16 (G-16)","OBJECT_ID":"2006-023A","EPOCH":"2026-04-25T12:12:57.497184","MEAN_MOTION":1.0027417,"ECCENTRICITY":0.0003037,"INCLINATION":0.0235,"RA_OF_ASC_NODE":231.5796,"ARG_OF_PERICENTER":175.1196,"MEAN_ANOMALY":251.0624,"EPHEMERIS_TYPE":0,"CLASSIFICATION_TYPE":"U","NORAD_CAT_ID":29236,"ELEMENT_SET_NO":999,"REV_AT_EPOCH":7244,"BSTAR":0,"MEAN_MOTION_DOT":-1.41e-6,"MEAN_MOTION_DDOT":0},{"OBJECT_NAME":"DIRECTV 9S","OBJECT_ID":"2006-043A","EPOCH":"2026-04-25T15:07:50.587968","MEAN_MOTION":1.00271504,"ECCENTRICITY":0.0004121,"INCLINATION":2.2871,"RA_OF_ASC_NODE":81.5006,"ARG_OF_PERICENTER":328.3555,"MEAN_ANOMALY":289.5444,"EPHEMERIS_TYPE":0,"CLASSIFICATION_TYPE":"U","NORAD_CAT_ID":29494,"ELEMENT_SET_NO":999,"REV_AT_EPOCH":5085,"BSTAR":0,"MEAN_MOTION_DOT":-1.25e-6,"MEAN_MOTION_DDOT":0},{"OBJECT_NAME":"GALAXY 17 (G-17)","OBJECT_ID":"2007-016B","EPOCH":"2026-04-25T11:48:42.806304","MEAN_MOTION":1.00271105,"ECCENTRICITY":0.0004214,"INCLINATION":2.8408,"RA_OF_ASC_NODE":80.5336,"ARG_OF_PERICENTER":327.5663,"MEAN_ANOMALY":257.587,"EPHEMERIS_TYPE":0,"CLASSIFICATION_TYPE":"U","NORAD_CAT_ID":31307,"ELEMENT_SET_NO":999,"REV_AT_EPOCH":6927,"BSTAR":0,"MEAN_MOTION_DOT":-2.18e-6,"MEAN_MOTION_DDOT":0},{"OBJECT_NAME":"INTELSAT 11 (IS-11)","OBJECT_ID":"2007-044B","EPOCH":"2026-04-25T08:27:59.455008","MEAN_MOTION":0.99052623,"ECCENTRICITY":0.0001532,"INCLINATION":3.4299,"RA_OF_ASC_NODE":79.2838,"ARG_OF_PERICENTER":222.6401,"MEAN_ANOMALY":36.52,"EPHEMERIS_TYPE":0,"CLASSIFICATION_TYPE":"U","NORAD_CAT_ID":32253,"ELEMENT_SET_NO":999,"REV_AT_EPOCH":6792,"BSTAR":0,"MEAN_MOTION_DOT":-1.89e-6,"MEAN_MOTION_DDOT":0},{"OBJECT_NAME":"HORIZONS-2","OBJECT_ID":"2007-063B","EPOCH":"2026-04-25T11:32:49.244064","MEAN_MOTION":1.00272781,"ECCENTRICITY":0.0003367,"INCLINATION":2.4681,"RA_OF_ASC_NODE":81.2426,"ARG_OF_PERICENTER":320.0095,"MEAN_ANOMALY":271.6531,"EPHEMERIS_TYPE":0,"CLASSIFICATION_TYPE":"U","NORAD_CAT_ID":32388,"ELEMENT_SET_NO":999,"REV_AT_EPOCH":6728,"BSTAR":0,"MEAN_MOTION_DOT":-2.66e-6,"MEAN_MOTION_DDOT":0},{"OBJECT_NAME":"DIRECTV 11","OBJECT_ID":"2008-013A","EPOCH":"2026-04-25T11:41:17.117088","MEAN_MOTION":1.00270342,"ECCENTRICITY":2.13e-5,"INCLINATION":0.0109,"RA_OF_ASC_NODE":99.4995,"ARG_OF_PERICENTER":254.3265,"MEAN_ANOMALY":295.8045,"EPHEMERIS_TYPE":0,"CLASSIFICATION_TYPE":"U","NORAD_CAT_ID":32729,"ELEMENT_SET_NO":999,"REV_AT_EPOCH":4506,"BSTAR":0,"MEAN_MOTION_DOT":-1.4e-6,"MEAN_MOTION_DDOT":0},{"OBJECT_NAME":"GALAXY 18 (G-18)","OBJECT_ID":"2008-024A","EPOCH":"2026-04-25T16:26:52.785024","MEAN_MOTION":1.00271532,"ECCENTRICITY":0.0003171,"INCLINATION":0.0197,"RA_OF_ASC_NODE":262.5775,"ARG_OF_PERICENTER":136.3024,"MEAN_ANOMALY":298.5349,"EPHEMERIS_TYPE":0,"CLASSIFICATION_TYPE":"U","NORAD_CAT_ID":32951,"ELEMENT_SET_NO":999,"REV_AT_EPOCH":4532,"BSTAR":0,"MEAN_MOTION_DOT":1.1e-7,"MEAN_MOTION_DDOT":0}]
