INTELSAT 902 (IS-902)   
1 26900U 01039A   26115.84231255 -.00000292  00000+0  00000+0 0  9997
2 26900   5.9865  72.4073 0004523 319.1985  75.3869  1.00271152 90179
INTELSAT 904 (IS-904)   
1 27380U 02007A   26115.20430075 -.00000235  00000+0  00000+0 0  9994
2 27380   6.7906  69.8070 0007641 337.8561 207.6189  1.00269967 51235
DIRECTV 5 (TEMPO 1)     
1 27426U 02023A   26115.60366925 -.00000067  00000+0  00000+0 0  9992
2 27426   4.7459  75.9470 0003411 319.8384 285.0455  1.00271721 87598
INTELSAT 905 (IS-905)   
1 27438U 02027A   26115.61368619  .00000084  00000+0  00000+0 0  9990
2 27438   6.6244  70.4202 0003377 337.2769 249.6576  1.00273059 50832
GALAXY 3C (G-3C)        
1 27445U 02030A   26115.83355918 -.00000163  00000+0  00000+0 0  9993
2 27445   3.5967  78.6739 0001504  25.5747 314.8098  1.00271473 45966
INTELSAT 906 (IS-906)   
1 27513U 02041A   26115.50851228  .00000003  00000+0  00000+0 0  9992
2 27513   5.6703  73.5537 0004048 334.0014  53.1973  1.00270322 86506
GALAXY 13 (HORIZONS-1)  
1 27954U 03044A   26115.47197669  .00000120  00000+0  00000+0 0  9993
2 27954   1.2831  84.4830 0002215 312.4608 196.4505  1.00272881 46048
INTELSAT 10-02          
1 28358U 04022A   26115.84489189  .00000000  00000+0  00000+0 0  9998
2 28358   0.0161  79.7429 0001312 344.1658  93.0742  1.00267814 80037
DIRECTV 8               
1 28659U 05019A   26115.47963094  .00000000  00000+0  00000+0 0  9990
2 28659   0.0153 229.4490 0003136 170.6777 226.9819  1.00270696 76549
GALAXY 28 (G-28)        
1 28702U 05022A   26115.84690589 -.00000212  00000+0  00000+0 0  9996
2 28702   3.1664  79.5557 0003133 315.2093  96.8640  1.00266785 51455
GALAXY 16 (G-16)        
1 29236U 06023A   26115.50899881 -.00000141  00000+0  00000+0 0  9991
2 29236   0.0235 231.5796 0003037 175.1196 251.0624  1.00274170 72449
DIRECTV 9S              
1 29494U 06043A   26115.63044662 -.00000125  00000+0  00000+0 0  9994
2 29494   2.2871  81.5006 0004121 328.3555 289.5444  1.00271504 50853
GALAXY 17 (G-17)        
1 31307U 07016B   26115.49216211 -.00000218  00000+0  00000+0 0  9999
2 31307   2.8408  80.5336 0004214 327.5663 257.5870  1.00271105 69271
INTELSAT 11 (IS-11)     
1 32253U 07044B   26115.35277147 -.00000189  00000+0  00000+0 0  9998
2 32253   3.4299  79.2838 0001532 222.6401  36.5200  0.99052623 67925
HORIZONS-2              
1 32388U 07063B   26115.48112551 -.00000266  00000+0  00000+0 0  9995
2 32388   2.4681  81.2426 0003367 320.0095 271.6531  1.00272781 67284
DIRECTV 11              
1 32729U 08013A   26115.48700367 -.00000140  00000+0  00000+0 0  9999
2 32729   0.0109  99.4995 0000213 254.3265 295.8045  1.00270342 45060
GALAXY 18 (G-18)        
1 32951U 08024A   26115.68533316  .00000011  00000+0  00000+0 0  9994
2 32951   0.0197 262.5775 0003171 136.3024 298.5349  1.00271532 45329
